[{"OBJECT_NAME":"STARLINK-31906","OBJECT_ID":"2024-097H","EPOCH":"2026-03-08T23:00:34.726464","MEAN_MOTION":15.27568151,"ECCENTRICITY":0.00019991,"INCLINATION":43.0029,"RA_OF_ASC_NODE":278.6119,"ARG_OF_PERICENTER":291.8309,"MEAN_ANOMALY":68.233,"EPHEMERIS_TYPE":0,"CLASSIFICATION_TYPE":"U","NORAD_CAT_ID":59842,"ELEMENT_SET_NO":999,"REV_AT_EPOCH":10180,"BSTAR":-2.9135845e-5,"MEAN_MOTION_DOT":-1.064e-5,"MEAN_MOTION_DDOT":0},{"OBJECT_NAME":"OBJECT H","OBJECT_ID":"2026-023H","EPOCH":"2026-03-09T17:12:47.154816","MEAN_MOTION":15.23139098,"ECCENTRICITY":0.00239537,"INCLINATION":96.639,"RA_OF_ASC_NODE":144.1723,"ARG_OF_PERICENTER":117.6533,"MEAN_ANOMALY":242.7142,"EPHEMERIS_TYPE":0,"CLASSIFICATION_TYPE":"U","NORAD_CAT_ID":67681,"ELEMENT_SET_NO":999,"REV_AT_EPOCH":484,"BSTAR":0.00052586846,"MEAN_MOTION_DOT":0.00012465,"MEAN_MOTION_DDOT":0}]
